$$SOE
2461295.500000000, A.D. 2026-Sep-12 00:00:00.0000, 3.405542515558248E+08, 3.039977646016550E+07, 7.862749005241333E+06,
2461302.500000000, A.D. 2026-Sep-19 00:00:00.0000, 3.418173679651610E+08, 4.238074966223948E+07, 7.874072832677986E+06,
2461309.500000000, A.D. 2026-Sep-26 00:00:00.0000, 3.426747411609272E+08, 5.431144176887067E+07, 7.876049109920878E+06,
2461316.500000000, A.D. 2026-Oct-03 00:00:00.0000, 3.431341344859298E+08, 6.617907878143360E+07, 7.868877404791895E+06,
2461323.500000000, A.D. 2026-Oct-10 00:00:00.0000, 3.432035168543482E+08, 7.797151369078527E+07, 7.852761086146332E+06,
2461330.500000000, A.D. 2026-Oct-17 00:00:00.0000, 3.428910268964520E+08, 8.967720603347304E+07, 7.827906529843155E+06,
2461337.500000000, A.D. 2026-Oct-24 00:00:00.0000, 3.422049403518575E+08, 1.012852005860768E+08, 7.794522392319582E+06,
2461344.500000000, A.D. 2026-Oct-31 00:00:00.0000, 3.411536406194682E+08, 1.127851054049236E+08, 7.752818932564013E+06,
2461351.500000000, A.D. 2026-Nov-07 00:00:00.0000, 3.397455926177350E+08, 1.241670695227071E+08, 7.703007353636660E+06,
2461358.500000000, A.D. 2026-Nov-14 00:00:00.0000, 3.379893199726806E+08, 1.354217613878890E+08, 7.645299214137942E+06,
2461365.500000000, A.D. 2026-Nov-21 00:00:00.0000, 3.358933835382063E+08, 1.465403488960958E+08, 7.579906128192104E+06,
2461372.500000000, A.D. 2026-Nov-28 00:00:00.0000, 3.334663600768478E+08, 1.575144781458137E+08, 7.507039596668191E+06,
2461379.500000000, A.D. 2026-Dec-05 00:00:00.0000, 3.307168245485268E+08, 1.683362503708204E+08, 7.426910579490200E+06,
2461386.500000000, A.D. 2026-Dec-12 00:00:00.0000, 3.276533359960848E+08, 1.789982002490182E+08, 7.339729043287717E+06,
2461393.500000000, A.D. 2026-Dec-19 00:00:00.0000, 3.242844249730843E+08, 1.894932756695319E+08, 7.245703654072419E+06,
2461400.500000000, A.D. 2026-Dec-26 00:00:00.0000, 3.206185822161512E+08, 1.998148181504090E+08, 7.145041553568810E+06,
2461407.500000000, A.D. 2027-Jan-02 00:00:00.0000, 3.166642486921931E+08, 2.099565437620510E+08, 7.037948175001070E+06,
2461414.500000000, A.D. 2027-Jan-09 00:00:00.0000, 3.124298070010800E+08, 2.199125246102606E+08, 6.924627086169660E+06,
2461421.500000000, A.D. 2027-Jan-16 00:00:00.0000, 3.079235740417007E+08, 2.296771709109782E+08, 6.805279854422376E+06,
2461428.500000000, A.D. 2027-Jan-23 00:00:00.0000, 3.031537948688086E+08, 2.392452136316131E+08, 6.680105923395157E+06,
2461435.500000000, A.D. 2027-Jan-30 00:00:00.0000, 2.981286378189390E+08, 2.486116876585950E+08, 6.549302477920949E+06,
2461442.500000000, A.D. 2027-Feb-06 00:00:00.0000, 2.928561912300871E+08, 2.577719158317518E+08, 6.413064283466130E+06,
2461449.500000000, A.D. 2027-Feb-13 00:00:00.0000, 2.873444612010411E+08, 2.667214950574759E+08, 6.271583639345452E+06,
2461456.500000000, A.D. 2027-Feb-20 00:00:00.0000, 2.816013679358519E+08, 2.754562836992088E+08, 6.125050595864654E+06,
2461463.500000000, A.D. 2027-Feb-27 00:00:00.0000, 2.756347419920326E+08, 2.839723870243973E+08, 5.973653043432698E+06,
2461470.500000000, A.D. 2027-Mar-06 00:00:00.0000, 2.694523233842779E+08, 2.922661426159297E+08, 5.817576551902860E+06,
2461477.500000000, A.D. 2027-Mar-13 00:00:00.0000, 2.630617618777093E+08, 3.003341077772092E+08, 5.657004272388592E+06,
2461484.500000000, A.D. 2027-Mar-20 00:00:00.0000, 2.564706172807167E+08, 3.081730480769125E+08, 5.492116935489610E+06,
2461491.500000000, A.D. 2027-Mar-27 00:00:00.0000, 2.496863598859183E+08, 3.157799264649634E+08, 5.323092881283730E+06,
2461498.500000000, A.D. 2027-Apr-03 00:00:00.0000, 2.427163712140192E+08, 3.231518928914483E+08, 5.150108097408786E+06,
2461505.500000000, A.D. 2027-Apr-10 00:00:00.0000, 2.355679450781876E+08, 3.302862744303555E+08, 4.973336260459125E+06,
2461512.500000000, A.D. 2027-Apr-17 00:00:00.0000, 2.282482889514884E+08, 3.371805658724281E+08, 4.792948776586801E+06,
2461519.500000000, A.D. 2027-Apr-24 00:00:00.0000, 2.207645256808193E+08, 3.438324207037904E+08, 4.609114808182463E+06,
2461526.500000000, A.D. 2027-May-01 00:00:00.0000, 2.131236958149891E+08, 3.502396424778102E+08, 4.422001260760665E+06,
2461533.500000000, A.D. 2027-May-08 00:00:00.0000, 2.053327608267191E+08, 3.564001773088230E+08, 4.231772762315184E+06,
2461540.500000000, A.D. 2027-May-15 00:00:00.0000, 1.973986057067175E+08, 3.623121084187711E+08, 4.038591849526003E+06,
2461547.500000000, A.D. 2027-May-22 00:00:00.0000, 1.893280393392306E+08, 3.679736501229172E+08, 3.842619292205557E+06,
2461554.500000000, A.D. 2027-May-29 00:00:00.0000, 1.811277959933659E+08, 3.733831397721530E+08, 3.644014128258735E+06,
2461561.500000000, A.D. 2027-Jun-05 00:00:00.0000, 1.728045388003241E+08, 3.785390307679755E+08, 3.442933583354771E+06,
2461568.500000000, A.D. 2027-Jun-12 00:00:00.0000, 1.643648631934023E+08, 3.834398870627975E+08, 3.239533094267309E+06,
2461575.500000000, A.D. 2027-Jun-19 00:00:00.0000, 1.558152999651792E+08, 3.880843781932653E+08, 3.033966389649928E+06,
2461582.500000000, A.D. 2027-Jun-26 00:00:00.0000, 1.471623182092950E+08, 3.924712745686113E+08, 2.826385581061780E+06,
2461589.500000000, A.D. 2027-Jul-03 00:00:00.0000, 1.384123282681068E+08, 3.965994430049957E+08, 2.616941252605200E+06,
2461596.500000000, A.D. 2027-Jul-10 00:00:00.0000, 1.295716847119525E+08, 4.004678424971826E+08, 2.405782546451688E+06,
2461603.500000000, A.D. 2027-Jul-17 00:00:00.0000, 1.206466893747508E+08, 4.040755201733069E+08, 2.193057237948626E+06,
2461610.500000000, A.D. 2027-Jul-24 00:00:00.0000, 1.116435945915433E+08, 4.074216073583608E+08, 1.978911781230152E+06,
2461617.500000000, A.D. 2027-Jul-31 00:00:00.0000, 1.025686070413038E+08, 4.105053159742667E+08, 1.763491307234377E+06,
2461624.500000000, A.D. 2027-Aug-07 00:00:00.0000, 9.342789199034850E+07, 4.133259364223840E+08, 1.546939686686158E+06,
2461631.500000000, A.D. 2027-Aug-14 00:00:00.0000, 8.422757563385656E+07, 4.158828366853848E+08, 1.329399848111093E+06,
2461638.500000000, A.D. 2027-Aug-21 00:00:00.0000, 7.497374614877404E+07, 4.181754592718754E+08, 1.111014019367695E+06,
2461645.500000000, A.D. 2027-Aug-28 00:00:00.0000, 6.567245688440780E+07, 4.202033172012467E+08, 8.919236763396859E+05,
2461652.500000000, A.D. 2027-Sep-04 00:00:00.0000, 5.632973050879426E+07, 4.219659915249130E+08, 6.722695110468268E+05,
2461659.500000000, A.D. 2027-Sep-11 00:00:00.0000, 4.695156271331635E+07, 4.234631297135273E+08, 4.521914927425683E+05,
2461666.500000000, A.D. 2027-Sep-18 00:00:00.0000, 3.754392560558594E+07, 4.246944442527611E+08, 2.318289564403892E+05,
2461673.500000000, A.D. 2027-Sep-25 00:00:00.0000, 2.811277101692531E+07, 4.256597113647583E+08, 1.132069128581882E+04,
2461680.500000000, A.D. 2027-Oct-02 00:00:00.0000, 1.866403379759436E+07, 4.263587698786606E+08, -2.091949761311710E+05,
2461687.500000000, A.D. 2027-Oct-09 00:00:00.0000, 9.203635120731641E+06, 4.267915202423332E+08, -4.295801062135398E+05,
2461694.500000000, A.D. 2027-Oct-16 00:00:00.0000, -2.625141430695444E+05, 4.269579236177258E+08, -6.496970890462697E+05,
2461701.500000000, A.D. 2027-Oct-23 00:00:00.0000, -9.728509721908001E+06, 4.268580010522619E+08, -8.694086298048496E+05,
2461708.500000000, A.D. 2027-Oct-30 00:00:00.0000, -1.918844953609647E+07, 4.264918333360886E+08, -1.088577761521429E+06,
2461715.500000000, A.D. 2027-Nov-06 00:00:00.0000, -2.863642975285979E+07, 4.258595626746398E+08, -1.307067686606854E+06,
2461722.500000000, A.D. 2027-Nov-13 00:00:00.0000, -3.806654328635460E+07, 4.249613940991270E+08, -1.524741434918910E+06,
2461729.500000000, A.D. 2027-Nov-20 00:00:00.0000, -4.747287784340128E+07, 4.237975944260735E+08, -1.741461782773852E+06,
2461736.500000000, A.D. 2027-Nov-27 00:00:00.0000, -5.684951190085518E+07, 4.223684917346038E+08, -1.957091338935167E+06,
2461743.500000000, A.D. 2027-Dec-04 00:00:00.0000, -6.619051063785168E+07, 4.206744762803440E+08, -2.171492537618697E+06,
2461750.500000000, A.D. 2027-Dec-11 00:00:00.0000, -7.548992237351087E+07, 4.187160018840986E+08, -2.384527566801339E+06,
2461757.500000000, A.D. 2027-Dec-18 00:00:00.0000, -8.474177523626728E+07, 4.164935874591371E+08, -2.596058284657419E+06,
2461764.500000000, A.D. 2027-Dec-25 00:00:00.0000, -9.394007391404270E+07, 4.140078186789812E+08, -2.805946138165146E+06,
2461771.500000000, A.D. 2028-Jan-01 00:00:00.0000, -1.030787964450710E+08, 4.112593498047072E+08, -3.014052086421788E+06,
$$EOE